BEIDOU-2 G8             
1 44231U 19027A   22270.56034178 -.00000242  00000+0  00000+0 0  9997
2 44231   1.1027  79.0394 0006134 118.0176 155.5673  1.00273112 12447
YAMAL 601               
1 44307U 19031A   22268.40049741  .00000120  00000+0  00000+0 0  9992
2 44307   0.0094 220.7726 0002168 319.7731  16.8604  1.00273728 12285
AT&T T-16               
1 44333U 19034A   22270.37291264 -.00000111  00000+0  00000+0 0  9993
2 44333   0.0152 128.3554 0000698 351.2542 279.9381  1.00270480 12004
EUTELSAT 7C             
1 44334U 19034B   22270.36438385  .00000052  00000+0  00000+0 0  9993
2 44334   0.0632 242.3432 0003041 285.2928 336.6931  1.00271537 12487
BEIDOU-3 IGSO-2         
1 44337U 19035A   22270.60199017 -.00000121  00000+0  00000+0 0  9998
2 44337  55.1295 170.8162 0025658 191.9913 340.0791  1.00273244 12071
COSMOS 2539             
1 44457U 19048A   22270.60507160  .00000086  00000+0  00000+0 0  9996
2 44457   0.0341 128.2208 0000279  88.1684  19.8415  1.00274759 11601
EDRS-C                  
1 44475U 19049A   22269.89769274  .00000157  00000+0  00000+0 0  9991
2 44475   0.0601 257.1777 0000885 291.8850 170.9614  1.00270433 11575
INTELSAT 39 (IS-39)     
1 44476U 19049B   22270.54386094  .00000037  00000+0  00000+0 0  9998
2 44476   0.0139 228.8109 0000661 162.6509 232.6058  1.00270894 11506
AMOS-17                 
1 44479U 19050A   22270.53487931  .00000113  00000+0  00000+0 0  9999
2 44479   0.0137 121.4315 0001854  62.4751  31.9659  1.00273546 11565
AEHF-5 (USA 292)        
1 44481U 19051A   22270.54237852  .00000084  00000+0  00000+0 0  9996
2 44481   4.1581 304.3471 0005298 225.5419  86.1114  1.00271245 11641
EUTELSAT 5 WEST B       
1 44624U 19067A   22270.44077284 -.00000038  00000+0  00000+0 0  9992
2 44624   0.0698 350.5867 0005972 153.9669  15.3523  1.00272807 10828
MEV-1                   
1 44625U 19067B   22270.41785675 -.00000198  00000+0  00000+0 0  9997
2 44625   0.0208 173.9792 0001006  14.6918 300.4564  1.00269340 77963
TJS-4                   
1 44637U 19070A   22270.60138007 -.00000167  00000+0  00000+0 0  9992
2 44637   0.0618 108.0973 0002827 235.2621 323.0653  1.00272163 10925
BEIDOU-3 IGSO-3         
1 44709U 19073A   22270.46993657 -.00000151  00000+0  10000-3 0  9997
2 44709  57.0990 295.3247 0027565 182.4038 177.8132  1.00278163 10827
TIBA-1                  
1 44800U 19080A   22270.53862892  .00000159  00000+0  00000+0 0  9993
2 44800   0.0680  16.4177 0002387 173.4018  45.9001  1.00271159 10435
INMARSAT GX5            
1 44801U 19080B   22270.53365848  .00000079  00000+0  00000+0 0  9994
2 44801   0.0176 315.9700 0002190 243.3245  10.1181  1.00273526 10462
JCSAT-18 (KACIFIC 1)    
1 44868U 19091A   22270.53736012 -.00000197  00000+0  00000+0 0  9996
2 44868   0.0462  35.4720 0000251 212.5804 101.7230  1.00271544 10396
ELEKTRO-L 3             
1 44903U 19095A   22270.60101941 -.00000094  00000+0  00000+0 0  9991
2 44903   0.0527  29.5328 0001487 147.0128 122.2696  1.00271599 10089
SHIJIAN-20 (SJ-20)      
1 44910U 19097A   22270.68172470  .00000161  00000+0  00000+0 0  9998
2 44910   1.4246  90.9194 0004053  64.3909 130.0614  1.00269951 10067
TJS-5                   
1 44978U 20002A   22270.65752406 -.00000339  00000+0  00000+0 0  9998
2 44978   0.2090 285.6153 0003601 244.0796 180.9825  1.00273265 10063
GSAT-30                 
1 45026U 20005A   22270.38869097 -.00000161  00000+0  00000+0 0  9994
2 45026   0.0345 243.3101 0002493 242.9371 102.8533  1.00270349  9884
EUTELSAT KONNECT        
1 45027U 20005B   22270.43521575  .00000054  00000+0  00000+0 0  9997
2 45027   0.0501  96.9838 0000352 197.7414 235.3717  1.00276033 10698
JCSAT-17                
1 45245U 20013A   22269.98467546 -.00000317  00000+0  00000+0 0  9996
2 45245   6.0624 345.7081 0003908 193.3950 317.1237  1.00270518  9601
GEO-KOMPSAT-2B          
1 45246U 20013B   22270.55380448 -.00000340  00000+0  00000+0 0  9993
2 45246   0.0420 324.7378 0001712 273.3407  95.9078  1.00271552  9651
BEIDOU-3 G2             
1 45344U 20017A   22270.54633031 -.00000139  00000+0  00000+0 0  9990
2 45344   2.0163 357.2098 0003992 156.5108 129.3386  1.00271237  9630
AEHF-6 (USA 298)        
1 45465U 20022B   22270.48726788 -.00000302  00000+0  00000+0 0  9997
2 45465   5.7148 302.0501 0045523 358.1839  19.1117  1.00267037  9395
BEIDOU-3 G3             
1 45807U 20040A   22270.59144432 -.00000352  00000+0  00000+0 0  9994
2 45807   1.2201 306.6528 0008369 336.2955  46.8779  1.00275579  8455
APSTAR 6D               
1 45863U 20045A   22269.49259687 -.00000315  00000+0  00000+0 0  9996
2 45863   0.0388 101.2344 0001886  45.9485 169.4657  1.00270581  8224
KOREASAT 116            
1 45920U 20048A   22270.59751619 -.00000358  00000+0  00000+0 0  9995
2 45920   0.0135 252.1059 0001063 295.0401 150.5565  1.00273443  8016
EXPRESS 103             
1 45985U 20053A   22269.54493774 -.00000278  00000+0  00000+0 0  9991
2 45985   0.0450 325.1048 0000194 314.3245  18.5947  1.00270897  8018
EXPRESS 80              
1 45986U 20053B   22268.76518083 -.00000134  00000+0  00000+0 0  9997
2 45986   0.0321 306.3234 0000511 331.0616  82.6318  1.00270026  8002
BSAT-4B                 
1 46112U 20056A   22269.75073497 -.00000347  00000+0  00000+0 0  9993
2 46112   0.0357 136.1521 0003442  27.9909 221.4958  1.00269731  7758
MEV-2                   
1 46113U 20056B   22270.28868751 -.00000007  00000+0  00000+0 0  9992
2 46113   0.0128 222.3230 0001002 344.7379 261.9566  1.00271548 67008
GALAXY 30 (G-30)        
1 46114U 20056C   22270.56962935  .00000041  00000+0  00000+0 0  9990
2 46114   0.0222 178.6220 0002342   8.9202 258.8529  1.00269975  7669
GAOFEN 13               
1 46610U 20071A   22270.59934551 -.00000359  00000+0  00000+0 0  9997
2 46610   0.2484 257.8369 0003115 288.8153 153.3151  1.00270010  7278
TIANTONG-1 2            
1 46916U 20082A   22270.60420278 -.00000356  00000+0  00000+0 0  9993
2 46916   3.8886 294.7826 0001664 263.8400 150.1373  1.00276360  7034
LUCAS (JDRS-1)          
1 47202U 20089A   22270.03313296 -.00000233  00000+0  00000+0 0  9991
2 47202   0.0285 121.8052 0001426  36.7040 310.0322  1.00271280  6798
SXM-7                   
1 47240U 20096A   22270.60535321 -.00000018  00000+0  00000+0 0  9990
2 47240   0.0420 278.0639 0001846  79.7167 111.2397  1.00269798  6716
CMS-01                  
1 47256U 20099A   22269.97412421 -.00000162  00000+0  00000+0 0  9993
2 47256   0.0417 110.5122 0006726 147.6602 181.2824  1.00270250  6567
TURKSAT 5A              
1 47306U 21001A   22270.53766970  .00000158  00000+0  00000+0 0  9992
2 47306   0.0144 133.2419 0000111 295.2179 162.3576  1.00272522  6357
TIANTONG-1 3            
1 47321U 21003A   22270.54778494 -.00000156  00000+0  00000+0 0  9995
2 47321   4.2120 308.1655 0003643 237.4127  99.4815  1.00271720  6347
TJS-6                   
1 47613U 21010A   22270.57272642  .00000046  00000+0  00000+0 0  9991
2 47613   0.4168 286.9075 0000796 347.7322 116.3424  1.00270004  6190
SBIRS GEO-5 (USA 315)   
1 48618U 21042A   22270.34771654  .00000114  00000+0  00000+0 0  9990
2 48618   7.1821 325.9706 0002393 215.4689 330.7597  1.00272859  5139
FENGYUN 4B              
1 48808U 21047A   22268.77826947 -.00000322  00000+0  00000+0 0  9998
2 48808   0.2155  87.8612 0001618 267.3058  62.5865  1.00263798  4936
SXM-8                   
1 48838U 21049A   22270.51456160 -.00000201  00000+0  00000+0 0  9990
2 48838   0.0388 304.1199 0000622  81.5984  80.6156  1.00272010  5008
TIANLIAN 1-05           
1 49011U 21063A   22270.53487931  .00000109  00000+0  00000+0 0  9998
2 49011   1.9174 282.1203 0003948 264.3927  29.1269  1.00271719  4454
STAR ONE D2             
1 49055U 21069A   22270.17818876 -.00000261  00000+0  00000+0 0  9998
2 49055   0.0326 163.4133 0002968  19.0534 177.5318  1.00268353  4288
EUTELSAT QUANTUM        
1 49056U 21069B   22269.68013799  .00000128  00000+0  00000+0 0  9995
2 49056   0.0322  56.6126 0001798 137.7732 103.6515  1.00274333  4293
CHINASAT 2E (ZX 2E)     
1 49062U 21071A   22270.04885491 -.00000288  00000+0  00000+0 0  9991
2 49062   0.0524 322.8603 0001751 329.5021 189.1201  1.00270217  4426
TJS-7                   
1 49115U 21077A   22270.69632630 -.00000227  00000+0  00000+0 0  9995
2 49115   0.0726 225.7182 0001192 329.7181 208.1558  1.00268090  4197
CHINASAT 9B             
1 49125U 21080A   22270.58528229 -.00000309  00000+0  00000+0 0  9997
2 49125   0.0240 135.6773 0003391  40.1812 142.6034  1.00269315  4015
SHIJIAN-21 (SJ-21)      
1 49330U 21094A   22270.69639748 -.00000238  00000+0  00000+0 0  9992
2 49330   8.6379  49.3823 0109205  17.2068 338.3302  1.00397326  3639
SES-17                  
1 49332U 21095A   22269.94421450 -.00000269  00000+0  00000+0 0  9994
2 49332   0.0120 145.3226 0001015  34.9861  98.2455  1.00269855  4213
SYRACUSE 4A             
1 49333U 21095B   22270.54063451  .00000139  00000+0  00000+0 0  9991
2 49333   0.0174 182.2258 0001565 359.5716  64.6417  1.00270276  4363
QZS-1R                  
1 49336U 21096A   22270.48615863 -.00000198  00000+0  00000+0 0  9994
2 49336  34.6635 100.2235 0744098 269.6910 305.5904  1.00289598  3395
CHINASAT 1D (ZX 1D)     
1 49505U 21114A   22270.56576985 -.00000334  00000+0  00000+0 0  9995
2 49505   1.2228 277.9695 0001481 276.4964 145.6894  1.00269291  3209
STPSAT-6                
1 49817U 21118A   22270.58452517 -.00000042  00000+0  00000+0 0  9997
2 49817   0.0440  23.8813 0000858 200.6049 240.6562  1.00271958  2949
LDPE-1                  
1 49818U 21118B   22270.49503409 -.00000249  00000+0  00000+0 0  9994
2 49818   0.6214  99.1089 0003053 124.5013 253.5480  1.01202472  2961
EXPRESS AMU-7           
1 50001U 21123A   22270.29997131 -.00000239  00000+0  00000+0 0  9992
2 50001   0.0477 314.2721 0000334 343.1496 321.6548  1.00271830  2919
